id,type,is_extinct,is_multiple,name_en,name_ru,custom_title_en,custom_title_ru,family_id,iso_639_3,glottocode,latitude,longitude,main_country_id,encyclopedia_volume_id,page,encyclopedia_map_id,has_feature_profile,comment
aragonese,language/dialect,0,0,Aragonese,арагонский,,,ibero_rom,arg,arag1245,42.2935,-0.4394,esp,11,550,11-4,1,
aromanian,language/dialect,0,0,Aromanian,арумынский,,,east_rom,rup,arom1237,40.62,21.20,grc,11,636,11-6,1,
asturian,language,0,0,Asturian,астурийский,,,ibero_rom,ast,astu1245,42.7954,-5.6689,esp,11,535,11-4,1,
catalan,language,0,0,Catalan,каталонский,,,occit_rom,cat,stan1289,41.6666,2,esp,11,492,"11-4, 11-10",1,
corsican,language/dialect,0,0,Corsican,корсиканский,,,italo_rom,cos,cors1241,41.70,9.26,fra,11,146,"11-10, 11-3",1,
dalmatian,language,1,0,Dalmatian,далматинский,,,rhaet_rom,dlm,dalm1243,45.0599,14.5719,hrv,11,681,11-3,1,
franco_provencal,language,0,0,Franco-Provençal,франкопровансальский,,,gallo_rom,frp,fran1260,45.81,6.48,ita,11,304,"11-2, 11-3",1,
french,language,0,0,French,французский,,,gallo_rom,fra,stan1290,48.8839,2.3678,fra,11,194,"11-2, 11-1",1,
friulian,language,0,0,Friulian,фриульский,,,rhaet_rom,fur,friu1240,46.1037,13.1396,ita,11,365,"11-9, 11-3, 11-8",1,
galician,language,0,0,Galician,галисийский,,,ibero_rom,glg,gali1258,42.8667,-8.55,esp,11,517,11-4,1,
gascon,language/dialect,0,0,Gascon,гасконский,,,occit_rom,,gasc1240,43.3,-0.38,fra,11,321,"11-2, 11-4",1,
istriot,language/dialect,0,0,Istriot,истророманский,,,italo_rom,ist,istr1244,45.09,13.64,hrv,11,187,11-9,1,
istro_romanian,language/dialect,0,0,Istro-Romanian,истрорумынский,,,east_rom,ruo,istr1245,45.43,14.20,hrv,11,656,11-9,1,
italian,language,0,0,Italian,итальянский,,,italo_rom,ita,ital1282,41.9,12.5,ita,11,56,"11-3, 11-9, 11-1",1,
judeo_spanish,language,0,0,Judeo-Spanish,сефардский,,,ibero_rom,lad,ladi1251,41.20,28.66,tur,11,557,11-1,1,
ladin,language,0,0,Ladin,ладинский,,,rhaet_rom,lld,ladi1250,46.0666,11.1166,ita,11,392,"11-8, 11-3",1,
megleno_romanian,language/dialect,0,0,Megleno-Romanian,мегленорумынский,,,east_rom,ruq,megl1237,41.12,22.38,grc,11,671,11-6,1,
occitan,language,0,0,Occitan,окситанский,,,occit_rom,oci,occi1239,41.3833,2.1833,esp,11,278,"11-2, 11-3",1,
old_french,language,1,0,Old French,старофранцузский,,,gallo_rom,fro,oldf1239,48.8666,2,fra,11,250,,1,
portuguese,language,0,0,Portuguese,португальский,,,ibero_rom,por,port1283,38.7666,-9.1833,prt,11,462,"11-4, 11-1",1,
rhaeto_romance,language,0,0,Romansch,ретороманский,,,rhaet_rom,roh,roma1326,46.55,9.93,che,11,335,"11-7, 11-3",1,
romanian,language,0,0,Romanian,румынский,,,east_rom,ron,roma1327,44.04,26.0833,rou,11,574,"11-5, 11-1",1,
sardinian,language,0,0,Sardinian,сардинский,,,italo_rom,srd,sard1257,39.2166,9.1166,ita,11,160,"11-10, 11-3",1,
spanish,language,0,0,Spanish,испанский,,,ibero_rom,spa,stan1288,40.4333,-3.7,esp,11,411,"11-4, 11-1",1,
enets,language,0,0,Enets,энецкий,,,north_samo,"enf, enh",enet1250,70.9596,84.2651,rus,1,343,,1,
erzya,language,0,0,Erzya,эрзянский,,,mordv,myv,erzy1239,54.1302,45.4394,rus,1,190,,1,
estonian,language,0,0,Estonian,эстонский,,,finn,est,esto1258,59.4333,24.75,est,1,115,,1,
finnish,language,0,0,Finnish,финский,,,finn,fin,finn1318,60.1733,24.9486,fin,1,90,,1,
hungarian,language,0,0,Hungarian,венгерский,,,ugric,hun,hung1274,47.5167,19.0833,hun,1,256,,1,
ingrian,language,0,0,Ingrian,ижорский,,,finn,izh,ingr1248,59.8397,28.7017,rus,1,55,,1,
kamassian,language,1,0,Kamas,камасинский,,,south_samo,xas,kama1351,57.9964,92.8784,rus,1,380,,1,
karelian,language,0,0,Karelian,карельский,,,finn,krl,kare1335,63.0474,33.4616,rus,1,63,,1,
khanty,language,0,0,Khanty,хантыйский,,,ob_ugric,kca,khan1273,63.7047,66.676,rus,1,301,,1,
komi_permyak,language,0,0,Komi-Permyak,коми-пермяцкий,,,permic,koi,komi1269,59.204,54.5361,rus,1,229,,1,
komi_zyrian,language,0,0,Komi-Zyrian,коми-зырянский,,,permic,kpv,komi1268,61.6666,50.8166,rus,1,214,,1,
livonian,language,1,0,Livonian,ливский,,,finn,liv,livv1244,57.6101,22.2802,ltu,1,76,,1,
mansi,language,0,0,Mansi,мансийский,,,ob_ugric,mns,mans1258,58.6109,65.9375,rus,1,283,,1,
mari,language,0,0,Mari,марийский,,,mari,mhr,east2328,56.6333,47.8666,rus,1,148,,1,
moksha,language,0,0,Moksha,мокшанский,,,mordv,mdf,moks1248,54.1817,43.2751,rus,1,178,,1,
nenets,language,0,0,Nenets,ненецкий,,,north_samo,yrk,nene1249,67.6411,53.0447,rus,1,326,,1,
nganasan,language,0,0,Nganasan,нганасанский,,,north_samo,nio,ngan1291,72.816,91.582,rus,1,349,,1,
selkup,language,0,0,Selkup,селькупский,,,south_samo,sel,selk1253,65.7035,82.4441,rus,1,356,,1,
udmurt,language,0,0,Udmurt,удмуртский,,,permic,udm,udmu1245,56.8498,53.2184,rus,1,239,,1,
veps,language,0,0,Veps,вепсский,,,finn,vep,veps1250,60.3269,34.8046,rus,1,36,,1,
votic,language,0,0,Votic,водский,,,finn,vot,voti1245,59.5858,28.4518,rus,1,48,,1,
alabugat_tatar,language,0,0,Alabugat Tatar (Nogai),алабугатских татар (ногайцев),,,kipchak_nogai,,,43.8028,46.2744,rus,2,172,,1,
altai,language,0,0,Altai,алтайский,,,kyrg_kipchak,"atv, alt","nort2686, sout2694",51.95,85.9666,rus,2,179,,1,
astrakhan_karagash_nogai,language,0,0,Astrakhan Karagash Nogai,астраханских ногайцев-карагашей,,,kipchak_nogai,,,47.2643,47.2412,rus,2,187,,1,
azerbaijani,language,0,0,Azerbaijani,азербайджанский,,,oghuz_turk,aze,"nort2697, sout2697",40.3833,49.9833,aze,2,160,,1,
bashkir,language,0,0,Bashkir,башкирский,,,kipchak_bulgar,bak,bash1264,54.7333,55.9666,rus,2,206,,1,
bulgar,language,1,0,Bolgarian,булгарский,,,oghur,xbo,bolg1250,45.189,36.825,rus,2,47,,1,
chagatai,language,1,0,Chagatai,чагатайский,,,karluk,chg,chag1247,37.6,61.8333,tkm,2,148,,1,
chuvash,language,0,0,Chuvash,чувашский,,,oghur,chv,chuv1255,56.1333,47.25,rus,2,480,,1,
crimean_tatar,language,0,0,Crimean Tatar,крымскотатарский,,,kipchak_cuman,crh,crim1257,43.9414,28.3062,rou,2,298,,1,
dolgan,language,0,0,Dolgan,долганский,,,yakut_turk,dlg,dolg1241,71.3851,97.3388,rus,2,235,,1,
gagauz,language,0,0,Gagauz,гагаузский,,,oghuz_turk,gag,gaga1249,46.3003,28.6572,mda,2,224,,1,
karachay_balkar,language,0,0,Karachay-Balkar,карачаево-балкарский,,,kipchak_cuman,krc,kara1465,44.2137,42.8466,rus,2,272,,1,
karaim,language,0,0,Karaim,караимский,,,kipchak_cuman,kdr,kara1464,50.7538,25.3351,ukr,2,254,,1,
karakalpak,language,0,0,Kara-Kalpak,каракалпакский,,,kipchak_nogai,kaa,kara1467,42.45,59.6022,uzb,2,264,,1,
karakhanid_uighur,language,1,0,Karakhanid Uighur,караханидско-уйгурский,,,karluk,,,39.27,75.59,chn,2,64,,1,
kazakh,language,0,0,Kazakh,казахский,,,kipchak_nogai,kaz,kaza1248,51.1833,71.4,kaz,2,242,,1,
khakas,language,0,0,Khakas,хакасский,,,khak_turk,kjh,khak1248,53.7166,91.4166,rus,2,458,,1,
khwarezmian_turkic,language,1,0,Khwarezmian Turkic,хорезмско-тюркский,,,karluk,zkh,,47.161,47.5646,rus,2,139,,1,
kumyk,language,0,0,Kumyk,кумыкский,,,kipchak_cuman,kum,kumy1244,43.397,46.9775,rus,2,318,,1,
kyrgyz,language,0,0,Kirghiz,киргизский,,,kyrg_kipchak,kir,kirg1245,42.8666,74.5666,kgz,2,286,,1,
nogai,language,0,0,Nogai,ногайский,,,kipchak_nogai,nog,noga1249,43.8028,46.2744,rus,2,328,,1,
oghuz_x_xi,language,1,0,Oghuz of X-XI centuries,огузский X-XI веков,,,oghuz_turk,,,45.7666,62.1166,kaz,2,81,,1,
old_anatolian_turkic,language,1,0,Old Anatolian Turkic,староанатолийско-тюркский,,,oghuz_turk,,,41.01,29.9603,tur,2,116,,1,
old_uighur,language,1,0,Old Uighur,древнеуйгурский,,,karluk,oui,oldu1238,47.4311,102.6594,mng,2,54,,1,
orkhon_yenisei_inscriptions,language,1,0,Orkhon-Yenisei inscriptions,орхоно-енисейских надписей,,,old_turk,,,47.2833,102.5605,mng,2,89,,1,
polovets,language,1,0,Polovets,половецкий,,,kipchak_cuman,qwm,,46.9069,19.6933,hun,2,110,,1,
salar,language,0,0,Salar,саларский,,,karluk,slr,sala1264,36.2752,102.4584,chn,2,335,,1,
saryg_yugur,language,0,0,Western Yugur,сарыг-югурский,,,khak_turk,ybe,west2402,35.889,119.3554,chn,2,345,,1,
shor,language,0,0,Shor,шорский,,,khak_turk,cjs,shor1247,53.0544,87.7478,rus,2,497,,1,
tatar,language,0,0,Tatar,татарский,,,kipchak_bulgar,tat,tata1255,41.3438,48.6254,aze,2,357,,1,
tofalar,language,0,0,Tofa,тофаларский,,,sayan_turk,kim,kara1462,53.7324,98.2589,rus,2,372,,1,
turki,language,1,0,Turki,тюрки,,,karluk,,,37.7108,68.8311,tjk,2,126,,1,
turkish,language,0,0,Turkish,турецкий,,,oghuz_turk,tur,nucl1301,39.8666,32.8666,tur,2,394,,1,
turkmen,language,0,0,Turkmen,туркменский,,,oghuz_turk,tuk,turk1304,37.95,58.3833,tjk,2,412,,1,
tuvan,language,0,0,Tuvan,тувинский,,,sayan_turk,tyv,tuvi1240,51.7166,94.45,rus,2,384,,1,
uighur,language,0,0,Uighur,уйгурский,,,karluk,uig,uigh1240,43.8,87.5833,chn,2,437,,1,
uzbek,language,0,0,Uzbek,узбекский,,,karluk,uzb,uzbe1247,41.3,69.2666,uzb,2,426,,1,
yakut,language,0,0,Yakut,якутский,,,yakut_turk,sah,yaku1245,62.0333,129.7333,rus,2,513,,1,
buryat,language,0,0,Buryat,бурятский,,,mongol,bua,buri1258,51.8333,107.6167,rus,3,37,,1,
dagur,language,0,0,Dagur,дагурский,,,mongol,dta,daur1238,47.9163,124.1235,chn,3,51,,1,
even,language,0,0,Even,эвенский,,,north_tung,eve,even1260,67.6593,134.6594,rus,3,284,,1,
evenki,language,0,0,Evenki,эвенкийский,,,north_tung,evn,even1259,51.9833,116.5833,rus,3,267,,1,
japanese,language,0,0,Japanese,японский,,,japon,jpn,nucl1643,35.6833,139.6833,jpn,3,324,,1,
kalmyk,language,0,0,Kalmyk,калмыцкий,,,mongol,,kalm1244,46.2026,45.8239,rus,3,73,,1,
korean,language,0,0,Korean,корейский,,,isolate,kor,kore1280,36.9923,127.0548,kor,3,361,,1,
manchu,language,0,0,Manchu,маньчжурский,,,south_tung,mnc,manc1252,48.0083,124.3542,chn,3,162,,1,
moghol,language,1,0,Moghol,могольский,,,mongol,mhj,mogh1245,34.3569,61.5875,afg,3,91,,1,
mongolian,language,0,0,Mongolian,монгольский,,,mongol,mon,mong1331,47.9166,106.9166,mng,3,108,,1,
mongols_of_inner_mongolia,language,0,0,Mongols of Inner Mongolia,монголов Внутренней Монголии,,,mongol,,,40.8166,111.65,chn,3,98,,1,
monguor,language,0,0,Monguor,монгорский,,,mongol,mjg,huzh1238,36.4919,102.6452,chn,3,124,,1,
nanai,language,0,0,Nanai,нанайский,,,south_east_tung,gld,nana1257,48.4767,135.094,rus,3,173,,1,
negidal,language,0,0,Negidal,негидальский,,,north_tung,neg,negi1245,52.942,139.779,rus,3,188,,1,
oirat,language,0,0,Oirat,ойратский,,,mongol,,oira1262,49.1675,87.812,chn,3,132,,1,
old_japanese,language,1,0,Old Japanese,старояпонский,,,japon,ojp,oldj1239,35.0166,135.75,jpn,3,305,,1,
oroch,language,0,0,Oroch,орочский,,,south_east_tung,oac,oroc1248,49.1781,139.7625,rus,3,215,,1,
orok,language,0,0,Orok,орокский,,,south_east_tung,oaa,orok1265,52.3437,143.0557,rus,3,201,,1,
pao_an,language,0,0,Pao-an,баоаньский,,,mongol,peh,bona1250,35.7102,102.8889,chn,3,29,,1,
santa,language,0,0,Dongxiang,дунсянский,,,mongol,sce,dong1285,36.0333,103.8,chn,3,60,,1,
shira_yugur,language,0,0,East Yugur,шира югуров,,,mongol,yuy,east2337,39.1002,99.2065,chn,3,148,,1,
solon,language,0,0,Solon,солонский,,,north_tung,,solo1263,48.166,119.4873,chn,3,226,,1,
udihe,language,0,0,Udihe,удэгейский,,,south_east_tung,ude,udih1248,47.6209,136.0903,rus,3,236,,1,
ulch,language,0,0,Ulch,ульчский,,,south_east_tung,ulc,ulch1241,52.0457,140.4162,rus,3,248,,1,
written_mongolian,language,1,0,Written Mongolian,старописьменный монгольский,,,mongol,xng,midd1351,40.8166,111.65,chn,3,18,,1,
belorussian,language,0,0,Belarusian,белорусский,,,east_slav,bel,bela1254,53.9166,27.55,blr,13,576,"13-1, 13-9, 13-10",1,
bulgarian,language,0,0,Bulgarian,болгарский,,,south_east_slav,bul,bulg1262,42.7,23.3333,bgr,13,76,"13-1, 13-3, 13-10",1,
czech,language,0,0,Czech,чешский,,,czech_slovak,ces,czec1258,50.0886,14.4213,cze,13,250,"13-1, 13-6",1,
kashubian,language,0,0,Kashubian,кашубский,,,lechit,csb,kash1274,54.2267,18.1713,pol,13,410,"13-1, 13-8",1,
macedonian,language,0,0,Macedonian,македонский,,,south_east_slav,mkd,mace1250,41.9833,21.4333,mkd,13,114,"13-1, 13-3",1,
old_church_slavonic,language,1,0,Old Church Slavonic,старославянский,,,south_east_slav,chu,chur1257,41.1391,22.5025,mkd,13,36,13-2,1,
old_russian,language,1,0,Old Russian,древнерусский,,,east_slav,orv,oldr1238,50.4438,30.5784,ukr,13,449,"13-2, 13-11",1,
polabian,language,1,0,Polabian,полабский,,,lechit,pox,pola1255,52.9666,11.15,deu,13,433,,1,
polish,language,0,0,Polish,польский,,,lechit,pol,poli1260,52.2166,21.0333,pol,13,373,"13-1, 13-8",1,
russian,language,0,0,Russian,русский,,,east_slav,rus,russ1263,55.7558,37.6176,rus,13,476,"13-1, 13-9, 13-10",1,
serbocroatian,language,0,0,Serbocroatian,сербохорватский,,,south_west_slav,hbs,sout1528,44.8205,20.4622,srb,13,151,"13-1, 13-3, 13-4, 13-5",1,
slovak,language,0,0,Slovak,словацкий,,,czech_slovak,slk,slov1269,48.1447,17.1127,svk,13,293,"13-1, 13-6",1,
slovene,language,0,0,Slovene,словенский,,,south_west_slav,slv,slov1268,46.05,14.5166,svn,13,212,"13-1, 13-5",1,
sorbian,language,0,0,Sorbian,серболужицкий,,,sorb,"dsb, hsb",sorb1249,51.5001,14.7444,deu,13,329,13-1,1,
ukrainian,language,0,0,Ukrainian,украинский,,,east_slav,ukr,ukra1253,50.45,30.5,ukr,13,541,"13-1, 13-10",1,
latvian,language,0,0,Latvian,латышский,,,balt,lav,latv1249,56.9421,24.162,lva,14,155,"14-1-1, 14-2, 14-3",1,
lithuanian,language,0,0,Lithuanian,литовский,,,balt,lit,lith1251,54.6775,25.3382,ltu,14,93,"14-1-2, 14-2, 14-3",1,
prussian,language,1,0,Prussian,прусский,,,balt,prg,prus1238,54.7319,20.4971,rus,14,50,"14-2, 14-3",1,
akkadian,language,1,0,Akkadian,аккадский,,,east_sem,akk,akka1240,33.1,44.1,irq,15,109,"15-2, 15-3, 15-4",1,
ancient_hebrew,language,1,0,Ancient Hebrew,древнееврейский,,,canaan,hbo,anci1244,31.7833,35.2333,isr,15,292,"15-6, 15-8",1,
classical_mandaic,language,1,0,Classical Mandaic,классический мандейский,,,aram,myz,clas1253,33.0479,44.3137,irq,15,622,15-9,1,
classical_syriac,language,1,0,Classical Syriac,классический сирийский,,,aram,syc,clas1252,36,43.3,irq,15,558,15-9,1,
jewish_palestinian_aramaic,language,1,0,Jewish Palestinian Aramaic,иудейско-палестинский арамейский,,,aram,jpa,pale1261,31.6253,35.1453,isr,15,527,15-9,1,
modern_hebrew,language,0,0,Modern Hebrew,современный иврит,,,canaan,heb,hebr1245,31.775,35.2884,isr,15,371,"15-1, 15-10",1,
neo_aramaic_of_maalula,language,0,0,Neo-Aramaic of Maalula,маалулы,,,neo_aram,amw,west2763,33.8358,36.6016,syr,15,701,15-10,1,
neo_mandaic,language,0,0,Neo-Mandaic,новомандейский,,,neo_aram,mid,nucl1706,35.6892,51.3889,irn,15,689,15-10,1,
official_aramaic,language,1,0,Official Aramaic,имперский арамейский,,,aram,oar,olda1245,32.5364,44.4208,irq,15,492,"15-5, 15-8",1,
phoenician,language,1,0,Phoenician,финикийский,,,canaan,phn,phoe1239,32,35,isr,15,274,"15-6, 15-7",1,
turoyo,language,0,0,Turoyo,туройо,,,neo_aram,tru,turo1239,37.4,41.4833,tur,15,747,"15-11, 15-12",1,
ugaritic,language,1,0,Ugaritic,угаритский,,,north_sem,uga,ugar1238,35.6003,35.7987,syr,15,201,15-4,1,
afrikaans,language,0,0,Afrikaans,африкаанс,,,south_germ,afr,afri1274,-25.7256,28.2438,zaf,10,87,10-1,1,
danish,language,0,0,Danish,датский,,,north_germ,"dan, jut","dani1285, juti1236",55.6869,12.5833,dnk,10,127,"10-1, 10-2",1,
dutch,language,0,0,Dutch,нидерландский,,,south_germ,nld,dutc1256,52.3833,4.9,nld,10,272,"10-1, 10-2",1,
english,language,0,0,English,английский,,,anglo_fris,eng,stan1293,51.5,0,gbr,10,43,"10-1, 10-2",1,
faroese,language,0,0,Faroese,фарерский,,,north_germ,fao,faro1244,62,-6.7833,dnk,10,328,10-2,1,
frisian,language,0,0,Frisian,фризский,,,anglo_fris,"fry, frr, stq","west2354, nort2626, sate1242",53.0333,6.3166,nld,10,335,10-2,1,
german,language,0,0,German,немецкий,,,south_germ,deu,stan1295,52.5166,13.3833,deu,10,216,"10-1, 10-2",1,
gothic,language,1,0,Gothic,готский,,,east_germ,got,goth1244,44.4167,12.02,ita,10,101,,1,
icelandic,language,0,0,Icelandic,исландский,,,north_germ,isl,icel1247,64.23,-21.8266,isl,10,170,10-1,1,
luxembourgian,language,0,0,Luxembourgian,люксембургский,,,south_germ,ltz,luxe1241,49.6071,6.1248,lux,10,198,10-2,1,
norwegian,language,0,0,Norwegian,норвежский,,,north_germ,nor,norw1258,59.9333,10.6833,nor,10,300,"10-1, 10-2",1,
swedish,language,0,0,Swedish,шведский,,,north_germ,swe,swed1254,60.0986,19.9444,swe,10,349,10-2,1,
swiss_german,dialect,0,0,Swiss German,швейцарско-немецкий,,,south_germ,gsw,swis1247,47.05,8.46,che,10,380,10-2,1,
yiddish,language,0,0,Yiddish,идиш,,,south_germ,yid,yidd1255,53.3571,25.2465,blr,10,150,"10-1, 10-2",1,
dari,language,0,0,Dari,дари,,,south_west_iran,prs,dari1249,31.8402,54.1625,irn,5,,5-1,1,
davani,dialect,0,0,Davani,давани,,,south_west_iran,,dava1250,29.702740743759385,51.67466630895686,irn,5,,,1,
hazaragi,language,0,0,Hazaragi,хазара,,,south_west_iran,haz,haza1239,34.8166,67.8166,afg,5,,5-1,1,
kumzari,language/dialect,0,0,Kumzari,кумзари,,,south_west_iran,zum,kumz1235,26.16,56.42,omn,5,,5-1,1,
kurdshuli,language/dialect,0,0,Kurdshuli,курдшули,,,south_west_iran,,,30.65308656467516,52.672619742742995,irn,5,,,1,
middle_persian,language,1,0,Middle Persian,среднеперсидский,,,south_west_iran,pal,pahl1241,29.608,52.5247,irn,5,,,1,
old_persian,language,1,0,Old Persian,древнеперсидский,,,south_west_iran,peo,oldp1254,29.6081,52.5247,irn,5,,,1,
persian,language,0,0,Persian,персидский,,,south_west_iran,"fas, pes",west2369,35.7,51.4166,irn,5,,5-1,1,
tajik,language,0,0,Tajik,таджикский,,,south_west_iran,tgk,taji1245,38.5677,68.7936,tjk,5,,5-1,1,
tati,language,0,0,Tati,татский,,,south_west_iran,ttt,musl1236,41.3438,48.6254,aze,5,,5-1,1,
abdui,dialect,0,0,Abdui,абдуи,,,north_west_iran,,,29.599167,51.863056,irn,6,85,,1,
aftari,language/dialect,0,0,Aftari,афтари,,,north_west_iran,,afta1234,35.36,53.70,irn,6,164,,1,
balochi,language,0,0,Balochi,белуджский,,,north_west_iran,bal,"east2304, sout2642, west2368",30.36,67.02,pak,6,28,5-1,1,
biyabuneki,language/dialect,0,0,Biyabuneki,биябунеки,,,north_west_iran,,biya1234,35.53,53.29,irn,6,162,,1,
farizandi,dialect,0,0,Farizandi,фаризанди,,,north_west_iran,,fari1234,33.46,51.95,irn,6,202,,1,
gilaki,language,0,0,Gilaki,гилянский,,,north_west_iran,glk,gila1241,37.2755,49.6028,irn,6,112,5-1,1,
gurani,language,0,0,Gurani,гурани,,,north_west_iran,hac,gura1251,35.4259,46.2551,irn,6,77,5-1,1,
jawshakani,dialect,0,0,Jawshakani,джавшакани,,,north_west_iran,,jows1234,33.99,51.40,irn,6,218,,1,
keshei,dialect,0,0,Keshei,кешеи,,,north_west_iran,,kesh1234,33.23,51.47,irn,6,210,,1,
kohrudi,dialect,0,0,Kohrudi,кохруди,,,north_west_iran,,qohr1234,34.380556527627064,51.34338131723769,irn,6,207,,1,
kurdish,language,0,0,Kurdish,курдский,,,north_west_iran,kur,kurd1259,36.1833,44,irq,6,56,5-1,1,
lasgerdi,language/dialect,0,0,Lasgerdi,ласгерди,,,north_west_iran,lsa,lasg1238,35.40,53.00,irn,6,158,,1,
mazanderani,language,0,0,Mazanderani,мазандеранский,,,north_west_iran,mzn,maza1291,36.24,52.30,irn,6,125,5-1,1,
meimei,dialect,0,0,Meimei,меймеи,,,north_west_iran,,meym1234,35.34,53.24,irn,6,214,,1,
sangesari,language/dialect,0,0,Sangesari,сангесари,,,north_west_iran,sgr,sang1315,35.72,53.30,irn,6,166,,1,
semnani,language,0,0,Semnani,семнанский,,,north_west_iran,smy,semn1251,35.5769,53.3953,irn,6,144,,1,
shamerzadi,language/dialect,0,0,Shamerzadi,шамерзади,,,north_west_iran,srz,shah1253,35.78,53.32,irn,6,135,5-1,1,
surkhei,language/dialect,0,0,Surkhei,сурхеи,,,north_west_iran,,sork1240,35.46,53.22,irn,6,153,,1,
talysh,language,0,0,Talysh,талышский,,,north_west_iran,tly,taly1247,38.814,48.6804,aze,6,89,5-1,1,
velatru,language/dialect,0,0,Velatru,велатру,,,north_west_iran,,vela1234,36.07966135960555,51.38127560866207,irn,6,141,5-1,1,
yarandi,dialect,0,0,Yaran(d)i,яран(д)и,,,north_west_iran,,yara1255,32.57650811398008,52.430019336530954,irn,6,198,,1,
yazdi_and_kermani,language/dialect,0,1,Yazdi and Kermani,йезди и кермани,,,north_west_iran,,jude1275,30.399558152331394,57.14898823605028,irn,6,184,,1,
zaza,language,0,0,Zaza,заза,,,north_west_iran,zza,zaza1246,39,41,tur,6,73,5-1,1,
abaza,language,0,0,Abaza,абазинский,,,abazgi,abq,abaz1241,44.1556,41.9368,rus,9,,9-2,1,
abkhaz,language,0,0,Abkhaz,абхазский,,,abazgi,abk,abkh1244,43.133,40.8471,rus,9,,9-2,1,
adyghe,language,0,0,Adyghe,адыгейский,,,circas,ady,adyg1241,44.9181,39.7485,rus,9,,9-2,1,
agul,language,0,0,Aghul,агульский,,,lezg,agx,aghu1253,41.7518,47.6875,rus,9,,"9-1, 9-2",1,
akhvakh,language,0,0,Akhvakh,ахвахский,,,andi,akv,akhv1239,42.472,46.3238,rus,9,,"9-1, 9-2",1,
andi,language,0,0,Andi,андийский,,,andi,ani,andi1255,42.7308,46.2963,rus,9,,"9-1, 9-2",1,
avar,language,0,0,Avar,аварский,,,avar_andi,ava,avar1256,42.4801,46.8017,rus,9,,"9-1, 9-2",1,
bagvalal,language,0,0,Bagvalal,багвалинский,,,andi,kva,bagv1239,42.5247,46.192,rus,9,,"9-1, 9-2",1,
bats,language,0,0,Bats,бацбийский,,,nakh,bbl,bats1242,42.0982,45.0878,geo,9,,9-2,1,
bezhta,language,0,0,Bezhta,бежтинский,,,tsez,kap,bezh1248,42.1369,46.1508,rus,9,,"9-1, 9-2",1,
botlikh,language,0,0,Botlikh,ботлихский,,,andi,bph,botl1242,42.6602,46.2222,rus,9,,"9-1, 9-2",1,
chamalal,language,0,0,Chamalal,чамалинский,,,andi,cji,cham1309,42.5712,46.0739,rus,9,,"9-1, 9-2",1,
chechen,language,0,0,Chechen,чеченский,,,nakh,che,chec1245,43.3166,45.7,rus,9,,9-2,1,
dargwa,language,0,0,Dargwa,даргинский,,,darg,dar,darg1241,42.3205,47.5306,rus,9,,"9-1, 9-2",1,
georgian,language,0,0,Georgian,грузинский,,,south_kartv,kat,nucl1302,41.7167,44.8,geo,9,,9-2,1,
ginukh,language,0,0,Hinuq,гинухский,,,tsez,gin,hinu1240,42.1801,45.977,rus,9,,"9-1, 9-2",1,
godoberi,language,0,0,Godoberi,годоберинский,,,andi,gdo,ghod1238,42.5915,46.3376,rus,9,,"9-1, 9-2",1,
hunzib,language,0,0,Hunzib,гунзибский,,,tsez,huz,hunz1247,42.1654,46.2991,rus,9,,"9-1, 9-2",1,
ingush,language,0,0,Ingush,ингушский,,,nakh,inh,ingu1240,43.145,45.1043,rus,9,,9-2,1,
kabardian,language,0,0,Kabardian,кабардинский,,,circas,kbd,kaba1278,43.7393,43.4289,rus,9,,9-2,1,
karata,language,0,0,Karata,каратинский,,,andi,kpt,kara1474,42.5911,46.3374,rus,9,,"9-1, 9-2",1,
khvarshi,language,0,0,Khvarshi,хваршинский,,,tsez,khv,khva1239,42.3417,46.1212,rus,9,,"9-1, 9-2",1,
lak,language,0,0,Lak,лакский,,,north_east_cauc,lbe,lakk1252,42.0125,47.2521,rus,9,,"9-1, 9-2",1,
laz,language,0,0,Laz,лазский,,,south_kartv,lzz,lazz1240,41.2736,41.2646,geo,9,,9-2,1,
lezgian,language,0,0,Lezgian,лезгинский,,,lezg,lez,lezg1247,41.4921,48.0541,rus,9,,"9-1, 9-2",1,
mingrelian,language,0,0,Mingrelian,мегрельский,,,south_kartv,xmf,ming1252,42.4599,41.7205,tur,9,,9-2,1,
rutul,language,0,0,Rutul,рутульский,,,lezg,rut,rutu1240,41.5332,47.3181,rus,9,,"9-1, 9-2",1,
svan,language,0,0,Svan,сванский,,,north_kartv,sva,svan1243,42.9164,43.0114,geo,9,,9-2,1,
tabasaran,language,0,0,Tabasaran,табасаранский,,,lezg,tab,taba1259,41.8081,47.9882,rus,9,,"9-1, 9-2",1,
tindi,language,0,0,Tindi,тиндинский,,,andi,tin,tind1238,42.466,46.1453,rus,9,,"9-1, 9-2",1,
tsez,language,0,0,Tsez,цезский,,,tsez,ddo,dido1241,42.2376,45.8734,rus,9,,"9-1, 9-2",1,
ubykh,language,1,0,Ubykh,убыхский,,,ubykh,uby,ubyk1235,43.5585,39.8597,rus,9,,9-2,1,
breton,language,0,0,Breton,бретонский,,,britton,bre,bret1244,48.2246,-3.9331,fra,10,392,,1,
celtiberian,language,1,0,Celtiberian,кельтиберский,,,cont_celt,xce,celt1247,41.5,-1.0333,esp,10,449,,1,
cornish,language,1,0,Cornish,корнский,,,britton,cor,corn1251,50.4575,-4.746,gbr,10,452,,1,
gaulish,language,1,0,Gaulish,галльский,,,cont_celt,"xtg, xga, xcg","tran1282, gala1252, cisa1237",39.34,32.84,tur,10,424,,1,
irish_gaelic,language,0,0,Irish Gaelic,ирландский,,,goidel,gle,iris1253,53.7876,-9.1845,irl,10,427,,1,
lepontic,language,1,0,Lepontic,лепонтийский,,,cont_celt,xlp,lepo1240,45.98,8.92,ita,10,456,,1,
manx,language,1,0,Manx,мэнкский,,,goidel,glv,manx1243,54.2106,-4.5318,gbr,10,457,,1,
pictish,language,1,0,Pictish,пиктский,,,britton,xpi,pict1238,56.37,-3.90,gbr,10,459,,1,
scottish_gaelic,language,0,0,Scottish Gaelic,шотландский,,,goidel,gla,scot1245,55.95,-3.1988,gbr,10,460,,1,
welsh,language,0,0,Welsh,валлийский,,,britton,cym,wels1247,52.4459,-3.5485,gbr,10,405,,1,
elamite,language,1,0,Elamite,эламский,,,isolate,elx,elam1244,32.1892,48.2577,irn,16,95,"16-1, 16-2, 16-4",1,
hattic,language,1,0,Hattic,хаттский,,,isolate,xht,hatt1246,41.7269,36.0115,tur,16,168,"16-1, 16-7",1,
hurrian,language,1,0,Hurrian,хурритский,,,hurro_urar,xhu,hurr1240,36.8,40.3,syr,16,126,"16-1, 16-5",1,
sumerian,language,1,0,Sumerian,шумерский,,,isolate,sux,sume1241,31.3222,45.6361,irq,16,19,"16-1, 16-3",1,
urartian,language,1,0,Urartian,урартский,,,hurro_urar,xur,urar1245,38.5027,43.1222,tur,16,149,"16-2, 16-6",1,
amharic,language,0,0,Amharic,амхарский,,,ethio_sem,amh,amha1245,9.03,38.74,eth,18,311,18-1,1,
argobba,language,0,0,Argobba,аргобба,,,ethio_sem,agj,argo1244,9.03,38.74,eth,18,375,18-1,1,
chaha,language,0,0,Chaha,чаха,,,ethio_sem,,chah1248,8.1667,38.25,eth,18,577,18-4,1,
gafat,language,1,0,Gafat,гафат,,,ethio_sem,gft,gafa1240,10.6768,35.8264,eth,18,546,18-1,1,
geez,language,1,0,Ge`ez,геэз,,,ethio_sem,gez,geez1241,14.1074,38.7879,eth,18,141,"18-2, 18-3",1,
harari,language,0,0,Harari,харари,,,ethio_sem,har,hara1271,9.3111,42.1278,eth,18,406,18-1,1,
tigre,language,0,0,Tigre,тигре,,,ethio_sem,tig,tigr1270,15.3228,38.925,eri,18,216,18-1,1,
tigrinya,language,0,0,Tigrinya,тигринья,,,ethio_sem,tir,tigr1271,13.4833,39.4666,eth,18,260,18-1,1,
zay,language,0,0,Zay,зай,,,ethio_sem,zwa,zayy1238,8.0728,38.8476,eth,18,509,18-4,1,
beng,language,0,0,Beng,бен,,,south_mande,nhb,beng1286,6.85,-5.3,civ,21,1001,"21-1, 21-4, 21-5",1,
boko,language,0,0,Boko,боко,,,east_mande,bqc,boko1266,9.35,2.6166,ben,21,1052,"21-1, 21-10",1,
gban,language,0,0,Gban,гбан,,,south_mande,ggu,gagu1242,6.3057,-4.9768,civ,21,902,"21-1, 21-4",1,
goo,language,0,0,Goo,гоо,,,south_mande,,gooa1234,7.58,-7.56,civ,21,457,"21-1, 21-4",1,
jogo,language,0,0,Jogo,джого,,,jogo_jero,,jogo1242,7.94,-2.56,gha,21,213,"21-1, 21-5",1,
kakabe,language,0,0,Kakabe,какабе,,,mokole,kke,kaka1265,9.5167,-13.7,gin,21,172,"21-1, 21-3",1,
loko,language,0,0,Loko,локо,,,south_west_mande,lok,loko1255,8.4845,-13.2345,sle,21,414,"21-1, 21-3",1,
mandinka,language,0,0,Mandinka,мандинка,,,manding_west,mnk,mand1436,13.0153,-15.3177,sen,21,144,"21-1, 21-11",1,
mano,language,0,0,Mano,мано,,,south_mande,mev,mann1248,6.75,-8.75,lbr,21,680,"21-1, 21-4",1,
mwan,language,0,0,Mwan,муан,,,south_mande,moa,mwan1250,6.85,-5.3,civ,21,718,"21-1, 21-4",1,
soninke,language,0,0,Soninke,сонинке,,,soni_bozo,snk,soni1259,12.65,-8,mli,21,248,"21-1, 21-2, 21-11",1,
susu,language,0,0,Susu,сусу,,,susu_jall,sus,susu1250,9.5167,-13.7,gin,21,221,"21-1, 21-3",1,
tura,language,0,0,Tura,тура,,,south_mande,neb,tour1242,6.85,-5.3,civ,21,584,"21-1, 21-4",1,
wan,language,0,0,Wan,уан,,,south_mande,wan,wann1242,6.85,-5.3,civ,21,1032,"21-1, 21-4",1,
yaoure,language,0,0,Yaouré,яурэ,,,south_mande,yre,yaou1238,6.85,-5.3,civ,21,877,"21-1, 21-4",1,
mamluk_kipchak,language,1,0,Mamluk-Kipchak,мамлюкско-кыпчакский,,,kipchak_cuman,,,51.2333,51.3666,kaz,,,,0,
pecheneg,language,1,0,Pecheneg,печенежский,,,oghuz_turk,xpc,pech1242,46.4075,29.6191,mda,,,,0,
urum,language,0,0,Urum,урумский,,,kipchak_cuman,uum,urum1249,47.0102,36.7822,ukr,,,,0,
fuyu_kyrgyz,language,0,0,Fuyu Kyrgyz,фуюйских кыргызов,,,khak_turk,,,47.8,124.2,chn,,,,0,
khalaj,language,0,0,Khalaj,халаджский,,,karluk,klj,turk1303,34.3751,50.3063,irn,,,,0,
khorasani_turkic,language,0,0,Khorasani Turkic,хорасано-тюркский,,,oghuz_turk,kmz,khor1269,36.6596,57.854,irn,,,,0,
yurt_tatar,language,0,0,Yurt Tatar,юртовских татар,,,kipchak_nogai,,yurt1234,46.3943,48.3288,rus,,,,0,
jurchen,language,1,0,Jurchen,чжурчжэньский,,,south_tung,juc,jurc1239,33.0071,114.3624,chn,,,,0,
tamil,language,0,0,Tamil,тамильский,,,south_drav,tam,tami1289,13.09,80.27,ind,19,47,,1,
irula,language,0,0,Irula,ирула,,,south_drav,iru,irul1243,11.4369,76.5032,ind,19,173,,1,
malayalam,language,0,0,Malayalam,малаялам,,,south_drav,mal,mala1464,8.5,77,ind,19,188,,1,
toda,language,0,0,Toda,тода,,,south_drav,tcx,toda1252,11.4167,76.6833,ind,19,222,,1,
kota,language,0,0,Kota,кота,,,south_drav,kfe,kota1263,11.4154,76.8576,ind,19,233,,1,
kodagu,language,0,0,Kodagu,кодагу,,,south_drav,kfa,koda1255,11.6952,75.9375,ind,19,245,,1,
badaga,language,0,0,Badaga,бадага,,,south_drav,bfq,bada1257,11.3818,76.7739,ind,19,258,,1,
kannada,language,0,0,Kannada,каннада,,,south_drav,kan,nucl1305,12.9667,77.5667,ind,19,269,,1,
telugu,language,0,0,Telugu,телугу,,,south_cent_drav,tel,telu1262,17.37,78.48,ind,19,313,,1,
kolami,language,0,0,Kolami,колами,,,cent_drav,kfb,nort2699,20.5093,78.1787,ind,,,,0,
parji,language,0,0,Parji,парджи,,,cent_drav,pci,duru1236,18.6579,82.7407,ind,,,,0,
gadaba,language,0,0,Gadaba,гадаба,,,cent_drav,gdb,pott1240,18.3858,82.7819,ind,,,,0,
pengo,language,0,0,Pengo,пенго,,,gondwan,peg,peng1244,19.0621,83.4851,ind,,,,0,
manda,language,0,0,Manda,манда,,,gondwan,mha,mand1413,20.1384,84.0289,ind,,,,0,
kui,language,0,0,Kui,куи,,,gondwan,kxu,kuii1252,19.5908,83.9575,ind,,,,0,
kuvi,language,0,0,Kuvi,куви,,,gondwan,kxv,kuvi1243,18.9478,83.5839,ind,,,,0,
konda,language,0,0,Konda,конда,,,gondwan,kfc,kond1295,18.2763,82.9385,ind,,,,0,
gondi,language,0,0,Gondi,гонди,,,gondwan,gon,nort3258,19.5804,80.4418,ind,,,,0,
kurukh,language,0,0,Kurukh,курух,,,north_drav,"kru, kxl, xis","kuru1301, nepa1253, kisa1261",23.36,85.33,ind,,,,0,
malto,language,0,0,Malto,малто,,,north_drav,"kmj, mjt","kuma1274, saur1249",22.5667,88.3667,ind,,,,0,
brahui,language,0,0,Brahui,брахуи,,,north_drav,brh,brah1256,29.0369,66.5826,pak,,,,0,
ket,language,0,0,Ket,кетский,,,north_yen,ket,kett1243,62.6236,87.7148,rus,4,177,,0,
yugh,language,1,0,Yugh,югский,,,north_yen,yug,yugh1239,61.0901,88.1982,rus,4,187,,0,
kott,language,1,0,Kott,коттский,,,south_yen,zko,kott1239,56.0166,93.0666,rus,4,195,,0,
ainu,language,0,0,Ainu,айнский,,,isolate,ain,ainu1240,43.2612,142.8222,jpn,4,126,,0,
nivkh,language,0,0,Nivkh,нивхский,,,isolate,niv,gily1242,51.7814,143.1628,rus,4,139,,0,
burushaski,language,0,0,Burushaski,бурушаски,,,isolate,bsk,buru1296,35.909,74.2153,ind,4,204,,0,
parthian,language,1,0,Parthian,парфянский,,,north_west_iran,xpr,part1239,33.0936,44.5806,irq,6,14,,1,
parachi,language,0,0,Parachi,парачи,,,north_west_iran,prc,para1299,34.4658,68.637,afg,6,257,,1,
ormuri,language,0,0,Ormuri,ормури,,,north_west_iran,oru,ormu1247,32.518,69.783,pak,6,276,,1,
avestan,language,1,0,Avestan,авесты,,,iran,ave,aves1237,29.9808,52.9094,irn,7,10,,1,
bactrian,language,1,0,Bactrian,бактрийский,,,south_east_iran,xbc,bact1239,36.758,66.8988,afg,7,38,,1,
khotanese,language,1,0,Khotanese,хотаносакский,,,south_east_iran,kho,khot1251,37.103,79.9288,chn,7,46,,1,
sogdian,language,1,0,Sogdian,согдийский,,,north_east_iran,sog,sogd1245,39.6541,66.9597,uzb,7,58,,1,
khwaresmian,language,1,0,Khwaresmian,хорезмийский,,,north_east_iran,xco,khwa1238,41.55,60.6333,uzb,7,95,,1,
pashto,language,0,0,Pashto,пашто,,,south_east_iran,pus,nucl1276,34.5328,69.1658,afg,7,111,,1,
munji,language,0,0,Munji,мунджанский,,,south_east_iran,mnj,munj1244,36.0379,70.6723,afg,7,154,,1,
wakhi,language,0,0,Wakhi,ваханский,,,south_east_iran,wbl,wakh1245,35.5167,69.8667,afg,7,174,,1,
sanglechi,language,0,0,Sanglechi,сангличский,,,south_east_iran,sgy,sang1344,36.6585,71.4784,afg,7,186,,1,
ishkashimi,language,0,0,Ishkashimi,ишкашимский,,,south_east_iran,isk,ishk1246,36.6915,71.7668,tjk,7,196,,1,
shughni,language,0,0,Shughni,шугнанский,,,south_east_iran,sgh,shug1248,37.4879,71.5374,tjk,7,225,,1,
rushani,language,0,0,Rushani,рушанский,,,south_east_iran,,rush1239,37.8705,71.5979,tjk,7,242,,1,
khufi,language,0,0,Khufi,хуфский,,,south_east_iran,,khuf1238,37.4879,71.5374,tjk,7,254,,1,
bartangi,language,0,0,Bartangi,бартангский,,,south_east_iran,,bart1238,38.048,71.8286,tjk,7,259,,1,
roshorvi,language,0,0,Roshorvi,рошорвский,,,south_east_iran,,oros1238,38.1086,72.1719,tjk,7,264,,1,
sariqoli,language,0,0,Sariqoli,сарыкольский,,,south_east_iran,srh,sari1246,37.9463,75.1272,chn,7,269,,1,
yazghulami,language,0,0,Yazghulami,язгулямский,,,south_east_iran,yah,yazg1240,38.1982,71.4276,tjk,7,274,,1,
yaghnobi,language,0,0,Yaghnobi,ягнобский,,,iran,yai,yagn1238,38.5632,68.4475,tjk,7,290,,1,
ossetian,language,0,0,Ossetian,осетинский,,,iran,oss,iron1242,42.2238,43.9838,sos,7,311,,1,
kashmiri,language,0,0,Kashmiri,кашмири,,,dard,kas,kash1277,34.5,76,ind,8,21,,1,
shina,language,0,0,Shina,шина,,,dard,"scl, plk","shin1264, kohi1248",35.35,75.9,ind,8,37,,1,
phalura,language,0,0,Phalura,пхалура,,,dard,phl,phal1254,35.7264,71.7434,pak,8,47,,1,
mayan,language,0,0,Mayan,майян,,,dard,mvy,indu1241,35.3151,72.908,pak,8,53,,1,
garwi,language,0,0,Garwi,гарви,,,dard,gwc,kala1373,35.2893,72.6168,pak,8,56,,1,
torwali,language,0,0,Torwali,торвали,,,dard,trw,torw1241,35.5833,72.5,pak,8,58,,1,
khowar,language,0,0,Khowar,кховар,,,dard,khw,khow1242,34.1254,71.5649,pak,8,61,,1,
kalasha,language,0,0,Kalasha,калаша,,,dard,kls,kala1372,35.6684,71.7201,pak,8,65,,1,
tirahi,language,0,0,Tirahi,тирахи,,,dard,tra,tira1253,34.3139,70.3729,afg,8,70,,1,
pashai,language,0,0,Pashai,пашаи,,,dard,"aee, glh, psi, psh","nort2666, nort2665, sout2672, sout2671",34.66,70.2,afg,8,72,,1,
grangali,language,0,0,Grangali,глангали,,,dard,nli,gran1245,34.8666,71.1333,afg,8,81,,1,
shumashti,language,0,0,Shumashti,шумашти,,,dard,sts,shum1235,34.6108,70.7569,afg,8,86,,1,
katarkalai,language,1,0,Katarkalai,катаркалаи,,,dard,wsv,wota1240,34.4166,70.3333,afg,8,89,,1,
gawar,language,0,0,Gawar,гавар,,,dard,gou,gava1241,35.3272,71.5847,pak,,,,0,
dameli,language,0,0,Dameli,дамели,,,dard,dml,dame1241,35.578,71.8684,pak,,,,0,
kati,language,0,0,Kati,кати,,,nurist,bsh,kati1270,35.3845,71.3177,afg,,,,0,
waigali,language,0,0,Waigali,вайгали,,,nurist,wbk,waig1243,35.1895,71.1941,afg,,,,0,
ashkun,language,0,0,Ashkun,ашкун,,,nurist,ask,ashk1246,34.9973,71.0746,afg,,,,0,
prasun,language,0,0,Prasun,прасун,,,nurist,prn,pras1239,33.9391,67.7099,afg,,,,0,
vedic,language,1,0,Vedic,ведийский,,,indo_aryan,vsn,,31,74,ind,,,,0,
sanskrit,language,0,0,Sanskrit,санскрит,,,indo_aryan,san,sans1269,28.6913,77.2548,ind,,,,0,
pali,language,1,0,Pali,пали,,,indo_aryan,pli,pali1273,6.9,79.9,lka,,,,0,
hindi,language,0,0,Hindi,хинди,,,cent_indo_aryan,hin,hind1269,28.7,77.2,ind,,,,0,
awadhi,language,0,0,Awadhi,авадхи,,,cent_indo_aryan,awa,awad1243,26.85,80.91,ind,,,,0,
braj,language,0,0,Braj,брадж,,,cent_indo_aryan,bra,braj1242,26.85,80.91,ind,,,,0,
urdu,language,0,0,Urdu,урду,,,cent_indo_aryan,urd,urdu1245,33.6666,73.1666,pak,,,,0,
rajasthani,language,0,0,Rajasthani,раджастхани,,,cent_indo_aryan,raj,raja1256,26.9166,75.8666,ind,,,,0,
banjari,language,0,0,Banjari,банджари,,,cent_indo_aryan,lmn,lamb1269,17,77,ind,,,,0,
domaaki,language,0,0,Domaaki,домааки,,,indo_aryan,dmk,doma1260,34.9842,75.1101,ind,,,,0,
bangani,language,0,0,Bangani,бангани,,,pahari,gbm,garh1243,30.5,78.5,ind,,,,0,
nepali,language,0,0,Nepali,непальский,,,pahari,nep,east1436,27.7114,85.3087,npl,,,,0,
bote,language,0,0,Bote,боте,,,pahari,bmj,bote1238,27.9208,83.5082,npl,,,,0,
danwar,language,0,0,Danwar,данувар,,,pahari,dhw,koch1253,26.9661,86.3223,npl,,,,0,
darai,language,0,0,Darai,дараи,,,pahari,dry,dara1250,27.9264,84.331,npl,,,,0,
kumal,language,0,0,Kumal,кумал,,,pahari,kra,kumh1238,27.788,84.548,npl,,,,0,
tharu,language,0,0,Tharu,тхару,,,pahari,"thl, tkt, thr, the, thq, tkb, soi","dang1260, kath1250, rana1246, chit1274, koch1247, buks1238, sonh1238",30.33,78.06,ind,,,,0,
maithili,language,0,0,Maithili,майтхили,,,bihari,mai,mait1250,25.37,85.13,ind,,,,0,
bhojpuri,language,0,0,Bhojpuri,бходжпури,,,bihari,bho,bhoj1244,28.1667,84.25,npl,,,,0,
magahi,language,0,0,Magahi,магахи,,,bihari,mag,maga1260,25.6,85.1,ind,,,,0,
sadani,language,0,0,Sadani,садани/садри,,,bihari,"sck, sdr","sadr1248, orao1237",23.66,85.1,ind,,,,0,
assamese,language,0,0,Assamese,ассамский,,,east_indo_aryan,asm,assa1263,26.15,91.77,ind,,,,0,
bengali,language,0,0,Bengali,бенгальский,,,east_indo_aryan,ben,beng1280,24.3666,88.6,bgd,,,,0,
rajbanshi_nepal,language,0,0,Rajbanshi (Nepal),раджбанши/камта (Непал),,,east_indo_aryan,rkt,rang1265,23.2167,72.6833,ind,,,,0,
oriya,language,0,0,Oriya,ория,,,east_indo_aryan,ori,,20.27,85.84,ind,,,,0,
punjabi,language,0,0,Punjabi,панджаби,,,north_indo_aryan,"pan, pnb","panj1256, west2386",31.5497,74.3436,pak,,,,0,
pothohari,language,0,0,Pot(h)ohari,потхорари,,,north_indo_aryan,phr,paha1251,31,72,pak,,,,0,
hindko,language,0,0,Hindko,хиндко,,,north_indo_aryan,"hnd, hno","sout2668, nort2662",34,71.32,pak,,,,0,
sindhi,language,0,0,Sindhi,синдхи,,,north_indo_aryan,"snd, lss, sbn","sind1272, lasi1242, sind1270",24.86,67.01,pak,,,,0,
parya,language,0,0,Parya,парья,,,indo_aryan,paq,pary1242,38.5094,68.0932,uzb,,,,0,
gujarati,language,0,0,Gujarati,гуджарати,,,south_indo_aryan,guj,guja1252,23.22,72.68,ind,,,,0,
saurashtra,language,0,0,Saurashtra,саураштра,,,south_indo_aryan,saz,saur1248,13.09,80.27,ind,,,,0,
marathi,language,0,0,Marathi,маратхи,,,south_indo_aryan,mar,mara1378,18.97,72.82,ind,,,,0,
konkani,language,0,0,Konkani,конкани,,,south_indo_aryan,kok,,28.6139,77.2089,ind,,,,0,
sinhala,language,0,0,Sinhala,сингальский,,,insu_indo_aryan,sin,sinh1246,6.9,79.9164,lka,,,,0,
maldivian,language,0,0,Maldivian,мальдивский/дивехи,,,insu_indo_aryan,div,dhiv1236,4.1753,73.5089,mdv,,,,0,
domari,language,0,0,Domari,домари,,,indo_aryan,rmt,doma1258,32.2128,35.2908,isr,,,,0,
lomavren,language,0,0,Lomavren,ломаврен,,,indo_aryan,rmi,loma1235,40.1833,44.5167,arm,,,,0,
hittite,language,1,0,Hittite,хеттский,,,anatol,oht,hitt1242,40.0197,34.6152,tur,20,26,,1,
lydian,language,1,0,Lydian,лидийский,,,anatol,xld,lydi1241,40,30,tur,20,75,,1,
palaic,language,1,0,Palaic,палайский,,,anatol,plq,pala1331,39,35,tur,20,97,,1,
luwian,language,1,0,Luwian,лувийский,,,anatol,"xlu, hlu","cune1239, hier1240",40.0197,34.6153,tur,20,106,,1,
lycian,language,1,0,Lycian,ликийский,,,anatol,xlc,lyci1241,36.7333,29.9,tur,20,131,,1,
milyan,language,1,0,Milyan,милийский,,,anatol,imy,mily1238,36.7333,29.9,tur,20,154,,1,
phrygian,language,1,0,Phrygian,фригийский,,,indo_euro,xpg,phry1239,39,35,tur,20,180,,1,
classical_armenian,language,1,0,Classical Armenian,древнеармянский,,,armen,xcl,clas1249,39.2836,43.3719,tur,20,221,,1,
standard_eastern_armenian,language,0,0,Standard Eastern Armenian,восточноармянский литературный,,,armen,,,40.1756,44.5715,arm,20,242,,1,
standard_western_armenian,language,0,0,Standard Western Armenian,западноармянский литературный,,,armen,,,40.1756,44.5715,arm,20,291,,1,
tocharian_a,language,1,0,Tocharian A,тохарский А,,,tochar,xto,tokh1242,39,83,chn,20,398,,1,
tocharian_b,language,1,0,Tocharian B,тохарский В,,,tochar,txb,tokh1243,39,83,chn,20,444,,1,
andronovo_aryan,language,1,0,Andronovo Aryan,андроновский арийский,,,indo_aryan,,,55.56153,90.01418,rus,20,217,,1,
galatian,language,1,0,Galatian,галатский,,,celt,xga,gala1252,39.97122,32.87817,tur,20,196,,1,
mitanni_indo_aryan,language,1,0,Mitanni Indo-Aryan,митаннийский индоарийский,,,indo_aryan,,,36.84683,40.12033,tur,20,198,,1,
tsakhur,language,0,0,Tsakhur,цахурский,,,lezg,kr,tsak1249,41.6523,46.9775,rus,,,,0,
archi,language,0,0,Archi,арчинский,,,lezg,aqc,arch1244,41.9839,46.8127,rus,,,,0,
kryz,language,0,0,Kryz,крызский,,,lezg,kry,kryt1240,41.1455,48.164,aze,,,,0,
budukh,language,0,0,Budukh,будухский,,,lezg,bdk,budu1248,41.1207,48.3233,aze,,,,0,
udi,language,0,0,Udi,удинсткий,,,lezg,udi,udii1243,41.8818,46.9171,rus,,,,0,
khinalug,language,0,0,Khinalug,хиналугский,,,north_east_cauc,kjj,khin1240,41.1777,48.1297,aze,,,,0,
bamana,language,0,0,Bamana,бамана,,,manding_east,bam,bamb1269,12.65,-8,mli,,,,0,
kpelle,language,0,0,Kpelle,кпелле,,,south_west_mande,kpe,kpel1252,7.75,-8.8167,gin,,,,0,
looma,language,0,0,Looma,лоома,,,south_west_mande,"lom, tob","loma1260, toba1269",7.92,-10.8,lbr,,,,0,
dan,language,0,0,Dan,дан,,,south_mande,dnj,nucl1770,6.85,-5.3,civ,,,,0,
kla_dan,language,0,0,Kla-Dan,кла-дан,,,south_mande,lda,klad1234,6.85,-5.3,civ,,,,0,
guro,language,0,0,Guro,гуро,,,south_mande,goa,guro1248,7,-6.5,civ,,,,0,
lappish,language,0,0,Lappish,саамский,,,sami,,,68.9099,22.9394,nor,,,,0,
hill_mari,language,0,0,Hill Mari,горномарийский,,,mari,mrj,west2392,56.3333,46.5666,rus,,,,0,
mator,language,1,0,Mator,маторский,,,south_samo,mtm,mato1250,54.5666,100.5666,rus,,,,0,
chukchi,language,0,0,Chukchi,чукотский,,,north_chuk_kamch,ckt,chuk1273,67.6248,176.1767,rus,4,23,,1,
koryak,language,0,0,Koryak,корякский,,,north_chuk_kamch,kpy,kory1246,61.8561,168.6621,rus,4,39,,1,
kerek,language,1,0,Kerek,керекский,,,north_chuk_kamch,krk,kere1280,62.5996,176.9183,rus,4,53,,1,
itelmen,language,0,0,Itelmen,ительменский,,,south_chuk_kamch,itl,itel1242,57.1496,156.9012,rus,4,60,,1,
asiatic_eskimo,language,0,0,Asiatic Eskimo,азиатских эскимосов,,,yupik,ess,cent2128,64.546,-173.128,rus,4,75,,1,
sirenik_eskimo,language,1,0,Sirenik Eskimo,сиреникских эскимосов,,,eskimo,ysr,sire1246,64.4194,-173.9657,rus,4,81,,0,
bering_strait_eskimo,language,0,0,Bering Strait Eskimo,эскимосов Берингова пролива,,,inuit,,,63.7444,-171.7242,usa,4,84,,0,
greenlandic,language,0,0,Greenlandic,гренландский,,,inuit,kal,kala1399,64.1666,-51.75,dnk,4,93,,0,
aleut,language,0,0,Aleut,алеутский,,,aleut,ale,aleu1260,52.2304,-174.1978,usa,4,101,,0,
copper_island_aleut,language,0,0,Copper Island Aleut,медновских алеутов,,,aleut,mud,medn1235,55.171,166.094,rus,4,117,,0,
yukaghir,language,0,0,Yukaghir,юкагирский,,,yukag,,yuka1259,69.1654,15.4732,rus,4,155,,0,
old_novgorod,dialect,1,0,Old Novgorod,древненовгородский,,,east_slav,,novg1240,58.5213100,31.2710400,rus,13,469,"13-2, 13-11",1,
kurdari,language/dialect,0,0,Kurdari,курдари,,,dard,,kurd1258,34.98481,70.62849,afg,8,81,,1,
ningalami,language,0,0,Ningalami,нингалами,,,dard,,nang1256,34.978375,70.90901,afg,8,86,,1,
sawi,language/dialect,0,0,Sawi,сави,,,dard,sdg,savi1242,35.166757,71.461926,afg,8,50,,1,
alanic,language,1,0,Alanic,аланский,,,north_east_iran,xln,,43.17780,44.81126,rus,7,105,,1,
scythian,language,1,0,Scythian,скифский,,,north_east_iran,xsc,,44.94169,34.11940,irn,7,107,,1,
wanji,language,1,0,Wanji,ванджский,,,south_east_iran,,,38.38014,71.47309,tjk,7,107,,1,
waneci,language/dialect,0,0,Waneci,ванеци,,,south_east_iran,wne,wane1241,30.0501,67.8327,pak,7,150,,1,
sargulami,language,1,0,Sargulami,саргулямский,,,south_east_iran,,,37.00322,70.87064,afg,7,58,,1,
khunsari,dialect,0,0,Khunsari,хунсари,,,north_west_iran,,khun1261,33.36292,50.31487,irn,6,222,,1,
median,language,1,0,Median,мидийский,,,north_west_iran,xme,,34.80002,48.51539,irn,6,13,,1,
sivandi,language/dialect,0,0,Sivandi,сивенди,,,north_west_iran,siy,siva1239,30.08,52.92,irn,6,236,,1,
tajrishi,language/dialect,0,0,Tajrishi,таджриши,,,north_west_iran,,,35.79589,51.43157,irn,6,246,,1,
vonishuni,dialect,0,0,Vonishuni,вонишуни,,,north_west_iran,,,33.98824,51.41069,irn,6,226,,1,
zefrei,dialect,0,0,Zefrei,Зефреи,,,north_west_iran,,zefr1234,32.80592,52.11667,irn,6,229,,1,
carian,language,1,0,Carian,карийский,,,anatol,xcr,cari1274,37.203,28.182,tur,20,166,,1,
pisidian,language,1,0,Pisidian,писидийский,,,anatol,xps,pisi1234,37.273,31.28,tur,20,177,,1,
sidetic,language,1,0,Sidetic,сидетский,,,anatol,xsd,side1240,36.764,31.917,tur,20,175,,1,
